ALOS (DAICHI)           
1 28931U 06002A   26053.79805426  .00001416  00000+0  24581-3 0  9992
2 28931  98.1193   9.8314 0001531  54.3173 305.8175 14.69755868 71291
H-2A R/B                
1 28932U 06002B   26054.15652596  .00010488  00000+0  53008-3 0  9997
2 28932  98.2386 199.9371 0052112 291.1836  68.3831 15.16082577 92239
RESURS-DK 1             
1 29228U 06021A   26053.98767324  .00002368  00000+0  14127-3 0  9990
2 29228  69.9314 275.0543 0002949 177.6968 182.4212 15.12645320 85306
CZ-4B R/B               
1 29507U 06046C   26054.09595734  .00005154  00000+0  26293-3 0  9997
2 29507  97.5625  99.0434 0032280 320.2776  39.6093 15.16734682 57836
CZ-2C R/B               
1 31114U 07010B   26054.07224759  .00000142  00000+0  84405-4 0  9992
2 31114  98.3973 168.0845 0058411 337.7441  22.1203 14.20240733977640
COSMO-SKYMED 1          
1 31598U 07023A   26054.15471836  .00003918  00000+0  35087-3 0  9996
2 31598  97.8879 245.0713 0001439  85.5037 274.6348 14.96416131 12736
COSMOS 2428             
1 31792U 07029A   26053.95092361  .00000185  00000+0  12501-3 0  9996
2 31792  70.9402 234.2803 0008238 293.0369  66.9883 14.12941344962012
SL-16 R/B               
1 31793U 07029B   26054.16258172 -.00000119  00000+0 -36755-4 0  9992
2 31793  70.9752 202.9192 0002484 280.8593 251.4768 14.14836439963311
KORONAS-FOTON           
1 33504U 09003A   26054.17397144  .00015243  00000+0  34523-3 0  9994
2 33504  82.4296 290.9657 0009953 201.2700 158.8135 15.42925193943507
CZ-2C R/B               
1 37731U 11030B   26054.14582659  .00001658  00000+0  21485-3 0  9995
2 37731  97.8520  11.7036 0053695  38.9719 332.0095 14.81158024787948
H-2A R/B                
1 38341U 12025E   26054.13876200  .00003733  00000+0  34061-3 0  9995
2 38341  98.4712  20.0256 0044921   2.4117 357.7309 14.95028762746041
SHIJIAN-16 (SJ-16)      
1 39358U 13057A   26054.14823288  .00001680  00000+0  16696-3 0  9992
2 39358  74.9714 212.6133 0016109 149.7449 210.4673 14.92277342669336
