CCSDS_OMM_VERS = 2.0
CREATION_DATE  = 
ORIGINATOR     = 

OBJECT_NAME    = ALOS (DAICHI)
OBJECT_ID      = 2006-002A
CENTER_NAME    = EARTH
REF_FRAME      = TEME
TIME_SYSTEM    = UTC
MEAN_ELEMENT_THEORY = SGP/SGP4

EPOCH          = 2026-02-22T19:09:11.888064
MEAN_MOTION    = 14.69755868
ECCENTRICITY   = .00015318
INCLINATION    = 98.1193
RA_OF_ASC_NODE = 9.8314
ARG_OF_PERICENTER = 54.3173
MEAN_ANOMALY   = 305.8175

EPHEMERIS_TYPE = 0
CLASSIFICATION_TYPE = U
NORAD_CAT_ID   = 28931
ELEMENT_SET_NO = 999
REV_AT_EPOCH   = 7129
BSTAR          = .24581134E-3
MEAN_MOTION_DOT = .1416E-4
MEAN_MOTION_DDOT = 0

CCSDS_OMM_VERS = 2.0
CREATION_DATE  = 
ORIGINATOR     = 

OBJECT_NAME    = H-2A R/B
OBJECT_ID      = 2006-002B
CENTER_NAME    = EARTH
REF_FRAME      = TEME
TIME_SYSTEM    = UTC
MEAN_ELEMENT_THEORY = SGP/SGP4

EPOCH          = 2026-02-23T03:45:23.842944
MEAN_MOTION    = 15.16082577
ECCENTRICITY   = .0052112
INCLINATION    = 98.2386
RA_OF_ASC_NODE = 199.9371
ARG_OF_PERICENTER = 291.1836
MEAN_ANOMALY   = 68.3831

EPHEMERIS_TYPE = 0
CLASSIFICATION_TYPE = U
NORAD_CAT_ID   = 28932
ELEMENT_SET_NO = 999
REV_AT_EPOCH   = 9223
BSTAR          = .53008E-3
MEAN_MOTION_DOT = .10488E-3
MEAN_MOTION_DDOT = 0

CCSDS_OMM_VERS = 2.0
CREATION_DATE  = 
ORIGINATOR     = 

OBJECT_NAME    = RESURS-DK 1
OBJECT_ID      = 2006-021A
CENTER_NAME    = EARTH
REF_FRAME      = TEME
TIME_SYSTEM    = UTC
MEAN_ELEMENT_THEORY = SGP/SGP4

EPOCH          = 2026-02-22T23:42:14.967936
MEAN_MOTION    = 15.12645320
ECCENTRICITY   = .0002949
INCLINATION    = 69.9314
RA_OF_ASC_NODE = 275.0543
ARG_OF_PERICENTER = 177.6968
MEAN_ANOMALY   = 182.4212

EPHEMERIS_TYPE = 0
CLASSIFICATION_TYPE = U
NORAD_CAT_ID   = 29228
ELEMENT_SET_NO = 999
REV_AT_EPOCH   = 8530
BSTAR          = .14127E-3
MEAN_MOTION_DOT = .2368E-4
MEAN_MOTION_DDOT = 0

CCSDS_OMM_VERS = 2.0
CREATION_DATE  = 
ORIGINATOR     = 

OBJECT_NAME    = CZ-4B R/B
OBJECT_ID      = 2006-046C
CENTER_NAME    = EARTH
REF_FRAME      = TEME
TIME_SYSTEM    = UTC
MEAN_ELEMENT_THEORY = SGP/SGP4

EPOCH          = 2026-02-23T02:18:10.714176
MEAN_MOTION    = 15.16734682
ECCENTRICITY   = .003228
INCLINATION    = 97.5625
RA_OF_ASC_NODE = 99.0434
ARG_OF_PERICENTER = 320.2776
MEAN_ANOMALY   = 39.6093

EPHEMERIS_TYPE = 0
CLASSIFICATION_TYPE = U
NORAD_CAT_ID   = 29507
ELEMENT_SET_NO = 999
REV_AT_EPOCH   = 5783
BSTAR          = .26293E-3
MEAN_MOTION_DOT = .5154E-4
MEAN_MOTION_DDOT = 0

CCSDS_OMM_VERS = 2.0
CREATION_DATE  = 
ORIGINATOR     = 

OBJECT_NAME    = CZ-2C R/B
OBJECT_ID      = 2007-010B
CENTER_NAME    = EARTH
REF_FRAME      = TEME
TIME_SYSTEM    = UTC
MEAN_ELEMENT_THEORY = SGP/SGP4

EPOCH          = 2026-02-23T01:44:02.191776
MEAN_MOTION    = 14.20240733
ECCENTRICITY   = .0058411
INCLINATION    = 98.3973
RA_OF_ASC_NODE = 168.0845
ARG_OF_PERICENTER = 337.7441
MEAN_ANOMALY   = 22.1203

EPHEMERIS_TYPE = 0
CLASSIFICATION_TYPE = U
NORAD_CAT_ID   = 31114
ELEMENT_SET_NO = 999
REV_AT_EPOCH   = 97764
BSTAR          = .84405E-4
MEAN_MOTION_DOT = .142E-5
MEAN_MOTION_DDOT = 0

CCSDS_OMM_VERS = 2.0
CREATION_DATE  = 
ORIGINATOR     = 

OBJECT_NAME    = COSMO-SKYMED 1
OBJECT_ID      = 2007-023A
CENTER_NAME    = EARTH
REF_FRAME      = TEME
TIME_SYSTEM    = UTC
MEAN_ELEMENT_THEORY = SGP/SGP4

EPOCH          = 2026-02-23T03:42:47.666304
MEAN_MOTION    = 14.96416131
ECCENTRICITY   = .0001439
INCLINATION    = 97.8879
RA_OF_ASC_NODE = 245.0713
ARG_OF_PERICENTER = 85.5037
MEAN_ANOMALY   = 274.6348

EPHEMERIS_TYPE = 0
CLASSIFICATION_TYPE = U
NORAD_CAT_ID   = 31598
ELEMENT_SET_NO = 999
REV_AT_EPOCH   = 1273
BSTAR          = .35087E-3
MEAN_MOTION_DOT = .3918E-4
MEAN_MOTION_DDOT = 0

CCSDS_OMM_VERS = 2.0
CREATION_DATE  = 
ORIGINATOR     = 

OBJECT_NAME    = COSMOS 2428
OBJECT_ID      = 2007-029A
CENTER_NAME    = EARTH
REF_FRAME      = TEME
TIME_SYSTEM    = UTC
MEAN_ELEMENT_THEORY = SGP/SGP4

EPOCH          = 2026-02-22T22:49:19.799904
MEAN_MOTION    = 14.12941344
ECCENTRICITY   = .0008238
INCLINATION    = 70.9402
RA_OF_ASC_NODE = 234.2803
ARG_OF_PERICENTER = 293.0369
MEAN_ANOMALY   = 66.9883

EPHEMERIS_TYPE = 0
CLASSIFICATION_TYPE = U
NORAD_CAT_ID   = 31792
ELEMENT_SET_NO = 999
REV_AT_EPOCH   = 96201
BSTAR          = .12501E-3
MEAN_MOTION_DOT = .185E-5
MEAN_MOTION_DDOT = 0

CCSDS_OMM_VERS = 2.0
CREATION_DATE  = 
ORIGINATOR     = 

OBJECT_NAME    = SL-16 R/B
OBJECT_ID      = 2007-029B
CENTER_NAME    = EARTH
REF_FRAME      = TEME
TIME_SYSTEM    = UTC
MEAN_ELEMENT_THEORY = SGP/SGP4

EPOCH          = 2026-02-23T03:54:07.060608
MEAN_MOTION    = 14.14836439
ECCENTRICITY   = .0002484
INCLINATION    = 70.9752
RA_OF_ASC_NODE = 202.9192
ARG_OF_PERICENTER = 280.8593
MEAN_ANOMALY   = 251.4768

EPHEMERIS_TYPE = 0
CLASSIFICATION_TYPE = U
NORAD_CAT_ID   = 31793
ELEMENT_SET_NO = 999
REV_AT_EPOCH   = 96331
BSTAR          = -.36755E-4
MEAN_MOTION_DOT = -.119E-5
MEAN_MOTION_DDOT = 0

CCSDS_OMM_VERS = 2.0
CREATION_DATE  = 
ORIGINATOR     = 

OBJECT_NAME    = KORONAS-FOTON
OBJECT_ID      = 2009-003A
CENTER_NAME    = EARTH
REF_FRAME      = TEME
TIME_SYSTEM    = UTC
MEAN_ELEMENT_THEORY = SGP/SGP4

EPOCH          = 2026-02-23T04:10:31.132416
MEAN_MOTION    = 15.42925193
ECCENTRICITY   = .0009953
INCLINATION    = 82.4296
RA_OF_ASC_NODE = 290.9657
ARG_OF_PERICENTER = 201.2700
MEAN_ANOMALY   = 158.8135

EPHEMERIS_TYPE = 0
CLASSIFICATION_TYPE = U
NORAD_CAT_ID   = 33504
ELEMENT_SET_NO = 999
REV_AT_EPOCH   = 94350
BSTAR          = .34523E-3
MEAN_MOTION_DOT = .15243E-3
MEAN_MOTION_DDOT = 0

CCSDS_OMM_VERS = 2.0
CREATION_DATE  = 
ORIGINATOR     = 

OBJECT_NAME    = CZ-2C R/B
OBJECT_ID      = 2011-030B
CENTER_NAME    = EARTH
REF_FRAME      = TEME
TIME_SYSTEM    = UTC
MEAN_ELEMENT_THEORY = SGP/SGP4

EPOCH          = 2026-02-23T03:29:59.417376
MEAN_MOTION    = 14.81158024
ECCENTRICITY   = .0053695
INCLINATION    = 97.8520
RA_OF_ASC_NODE = 11.7036
ARG_OF_PERICENTER = 38.9719
MEAN_ANOMALY   = 332.0095

EPHEMERIS_TYPE = 0
CLASSIFICATION_TYPE = U
NORAD_CAT_ID   = 37731
ELEMENT_SET_NO = 999
REV_AT_EPOCH   = 78794
BSTAR          = .21485E-3
MEAN_MOTION_DOT = .1658E-4
MEAN_MOTION_DDOT = 0

CCSDS_OMM_VERS = 2.0
CREATION_DATE  = 
ORIGINATOR     = 

OBJECT_NAME    = H-2A R/B
OBJECT_ID      = 2012-025E
CENTER_NAME    = EARTH
REF_FRAME      = TEME
TIME_SYSTEM    = UTC
MEAN_ELEMENT_THEORY = SGP/SGP4

EPOCH          = 2026-02-23T03:19:49.036800
MEAN_MOTION    = 14.95028762
ECCENTRICITY   = .0044921
INCLINATION    = 98.4712
RA_OF_ASC_NODE = 20.0256
ARG_OF_PERICENTER = 2.4117
MEAN_ANOMALY   = 357.7309

EPHEMERIS_TYPE = 0
CLASSIFICATION_TYPE = U
NORAD_CAT_ID   = 38341
ELEMENT_SET_NO = 999
REV_AT_EPOCH   = 74604
BSTAR          = .34061E-3
MEAN_MOTION_DOT = .3733E-4
MEAN_MOTION_DDOT = 0

CCSDS_OMM_VERS = 2.0
CREATION_DATE  = 
ORIGINATOR     = 

OBJECT_NAME    = SHIJIAN-16 (SJ-16)
OBJECT_ID      = 2013-057A
CENTER_NAME    = EARTH
REF_FRAME      = TEME
TIME_SYSTEM    = UTC
MEAN_ELEMENT_THEORY = SGP/SGP4

EPOCH          = 2026-02-23T03:33:27.320832
MEAN_MOTION    = 14.92277342
ECCENTRICITY   = .0016109
INCLINATION    = 74.9714
RA_OF_ASC_NODE = 212.6133
ARG_OF_PERICENTER = 149.7449
MEAN_ANOMALY   = 210.4673

EPHEMERIS_TYPE = 0
CLASSIFICATION_TYPE = U
NORAD_CAT_ID   = 39358
ELEMENT_SET_NO = 999
REV_AT_EPOCH   = 66933
BSTAR          = .16696E-3
MEAN_MOTION_DOT = .168E-4
MEAN_MOTION_DDOT = 0

